{"type": "FeatureCollection", "features": [ {"type": "Feature", "properties": {"norad_id": 34571, "name": "COSMOS 2251 DEB", "group": "cosmos-2251-debris", "lat": 66.97229162868851, "lon": -140.6448319788165, "alt_km": 757.1673841275569, "timestamp": "2025-12-15T14:57:58.206474+00:00", "meta": {"OBJECT_NAME": "COSMOS 2251 DEB", "OBJECT_ID": "1993-036VH", "EPOCH": "2025-12-13T22:51:12.596832", "MEAN_MOTION": 14.4883551, "ECCENTRICITY": 0.00658871, "INCLINATION": 74.0384, "RA_OF_ASC_NODE": 180.1597, "ARG_OF_PERICENTER": 214.8223, "MEAN_ANOMALY": 144.8618, "EPHEMERIS_TYPE": 0, "CLASSIFICATION_TYPE": "U", "NORAD_CAT_ID": 34571, "ELEMENT_SET_NO": 999, "REV_AT_EPOCH": 87311, "BSTAR": 0.0023505364, "MEAN_MOTION_DOT": 9.115e-05, "MEAN_MOTION_DDOT": 0}, "tle": {"line1": "1 34571U 93036VH  25347.95222913  .00009115  00000+0  23505-2 0  9997", "line2": "2 34571  74.0384 180.1597 0065887 214.8223 144.8618 14.48835510873116"}}, "geometry": {"type": "Point", "coordinates": [-140.6448319788165, 66.97229162868851]}}, {"type": "Feature", "properties": {"norad_id": 34572, "name": "COSMOS 2251 DEB", "group": "cosmos-2251-debris", "lat": -48.07165402233561, "lon": 91.46424524818637, "alt_km": 757.7164136115234, "timestamp": "2025-12-15T14:57:58.206483+00:00", "meta": {"OBJECT_NAME": "COSMOS 2251 DEB", "OBJECT_ID": "1993-036VJ", "EPOCH": "2025-12-14T18:22:18.038784", "MEAN_MOTION": 14.50067347, "ECCENTRICITY": 0.00625275, "INCLINATION": 74.0103, "RA_OF_ASC_NODE": 111.6958, "ARG_OF_PERICENTER": 185.2926, "MEAN_ANOMALY": 325.7806, "EPHEMERIS_TYPE": 0, "CLASSIFICATION_TYPE": "U", "NORAD_CAT_ID": 34572, "ELEMENT_SET_NO": 999, "REV_AT_EPOCH": 87407, "BSTAR": 0.0023576163, "MEAN_MOTION_DOT": 9.36e-05, "MEAN_MOTION_DDOT": 0}, "tle": {"line1": "1 34572U 93036VJ  25348.76548656  .00009360  00000+0  23576-2 0  9993", "line2": "2 34572  74.0103 111.6958 0062527 185.2926 325.7806 14.50067347874078"}}, "geometry": {"type": "Point", "coordinates": [91.46424524818637, -48.07165402233561]}}, {"type": "Feature", "properties": {"norad_id": 34574, "name": "COSMOS 2251 DEB", "group": "cosmos-2251-debris", "lat": 46.80212194040053, "lon": 55.25639851962495, "alt_km": 607.9333170230611, "timestamp": "2025-12-15T14:57:58.206492+00:00", "meta": {"OBJECT_NAME": "COSMOS 2251 DEB", "OBJECT_ID": "1993-036VL", "EPOCH": "2025-12-14T14:58:57.948384", "MEAN_MOTION": 14.70632653, "ECCENTRICITY": 0.00669415, "INCLINATION": 74.0697, "RA_OF_ASC_NODE": 39.4825, "ARG_OF_PERICENTER": 59.8581, "MEAN_ANOMALY": 101.1917, "EPHEMERIS_TYPE": 0, "CLASSIFICATION_TYPE": "U", "NORAD_CAT_ID": 34574, "ELEMENT_SET_NO": 999, "REV_AT_EPOCH": 88806, "BSTAR": 0.00076089051, "MEAN_MOTION_DOT": 4.763e-05, "MEAN_MOTION_DDOT": 0}, "tle": {"line1": "1 34574U 93036VL  25348.62428181  .00004763  00000+0  76089-3 0  9990", "line2": "2 34574  74.0697  39.4825 0066941  59.8581 101.1917 14.70632653888068"}}, "geometry": {"type": "Point", "coordinates": [55.25639851962495, 46.80212194040053]}}, {"type": "Feature", "properties": {"norad_id": 34576, "name": "COSMOS 2251 DEB", "group": "cosmos-2251-debris", "lat": -39.65313756920599, "lon": -33.53949484932348, "alt_km": 710.1408251175708, "timestamp": "2025-12-15T14:57:58.206501+00:00", "meta": {"OBJECT_NAME": "COSMOS 2251 DEB", "OBJECT_ID": "1993-036VN", "EPOCH": "2025-12-14T20:32:31.564032", "MEAN_MOTION": 14.55442417, "ECCENTRICITY": 0.0008143, "INCLINATION": 74.0334, "RA_OF_ASC_NODE": 134.1872, "ARG_OF_PERICENTER": 270.3947, "MEAN_ANOMALY": 250.5346, "EPHEMERIS_TYPE": 0, "CLASSIFICATION_TYPE": "U", "NORAD_CAT_ID": 34576, "ELEMENT_SET_NO": 999, "REV_AT_EPOCH": 88497, "BSTAR": 0.00066330986, "MEAN_MOTION_DOT": 2.858e-05, "MEAN_MOTION_DDOT": 0}, "tle": {"line1": "1 34576U 93036VN  25348.85592088  .00002858  00000+0  66331-3 0  9997", "line2": "2 34576  74.0334 134.1872 0008143 270.3947 250.5346 14.55442417884970"}}, "geometry": {"type": "Point", "coordinates": [-33.53949484932348, -39.65313756920599]}}, {"type": "Feature", "properties": {"norad_id": 34579, "name": "COSMOS 2251 DEB", "group": "cosmos-2251-debris", "lat": -24.173971295539, "lon": -148.84940476262042, "alt_km": 733.0551081427366, "timestamp": "2025-12-15T14:57:58.206510+00:00", "meta": {"OBJECT_NAME": "COSMOS 2251 DEB", "OBJECT_ID": "1993-036VR", "EPOCH": "2025-12-14T19:44:11.019264", "MEAN_MOTION": 14.45315278, "ECCENTRICITY": 0.00275478, "INCLINATION": 74.0531, "RA_OF_ASC_NODE": 220.0157, "ARG_OF_PERICENTER": 288.3733, "MEAN_ANOMALY": 199.0194, "EPHEMERIS_TYPE": 0, "CLASSIFICATION_TYPE": "U", "NORAD_CAT_ID": 34579, "ELEMENT_SET_NO": 999, "REV_AT_EPOCH": 88204, "BSTAR": 0.00036242921, "MEAN_MOTION_DOT": 1.252e-05, "MEAN_MOTION_DDOT": 0}, "tle": {"line1": "1 34579U 93036VR  25348.82234976  .00001252  00000+0  36243-3 0  9992", "line2": "2 34579  74.0531 220.0157 0027547 288.3733 199.0194 14.45315278882041"}}, "geometry": {"type": "Point", "coordinates": [-148.84940476262042, -24.173971295539]}}, {"type": "Feature", "properties": {"norad_id": 34582, "name": "COSMOS 2251 DEB", "group": "cosmos-2251-debris", "lat": -66.03577354138017, "lon": 127.157275123867, "alt_km": 773.654002144538, "timestamp": "2025-12-15T14:57:58.206518+00:00", "meta": {"OBJECT_NAME": "COSMOS 2251 DEB", "OBJECT_ID": "1993-036VU", "EPOCH": "2025-12-14T19:30:11.681280", "MEAN_MOTION": 14.43338299, "ECCENTRICITY": 0.00479621, "INCLINATION": 74.0199, "RA_OF_ASC_NODE": 268.5217, "ARG_OF_PERICENTER": 18.1736, "MEAN_ANOMALY": 342.1121, "EPHEMERIS_TYPE": 0, "CLASSIFICATION_TYPE": "U", "NORAD_CAT_ID": 34582, "ELEMENT_SET_NO": 999, "REV_AT_EPOCH": 87977, "BSTAR": 0.00077965145, "MEAN_MOTION_DOT": 2.639e-05, "MEAN_MOTION_DDOT": 0}, "tle": {"line1": "1 34582U 93036VU  25348.81263520  .00002639  00000+0  77965-3 0  9998", "line2": "2 34582  74.0199 268.5217 0047962  18.1736 342.1121 14.43338299879777"}}, "geometry": {"type": "Point", "coordinates": [127.157275123867, -66.03577354138017]}}, {"type": "Feature", "properties": {"norad_id": 34588, "name": "COSMOS 2251 DEB", "group": "cosmos-2251-debris", "lat": -61.84884503778137, "lon": -129.40996106180728, "alt_km": 745.880099961124, "timestamp": "2025-12-15T14:57:58.206527+00:00", "meta": {"OBJECT_NAME": "COSMOS 2251 DEB", "OBJECT_ID": "1993-036WA", "EPOCH": "2025-12-14T21:15:33.469056", "MEAN_MOTION": 14.42029509, "ECCENTRICITY": 0.00192125, "INCLINATION": 74.0438, "RA_OF_ASC_NODE": 264.2785, "ARG_OF_PERICENTER": 316.7764, "MEAN_ANOMALY": 108.3245, "EPHEMERIS_TYPE": 0, "CLASSIFICATION_TYPE": "U", "NORAD_CAT_ID": 34588, "ELEMENT_SET_NO": 999, "REV_AT_EPOCH": 87981, "BSTAR": 0.00039982016, "MEAN_MOTION_DOT": 1.289e-05, "MEAN_MOTION_DDOT": 0}, "tle": {"line1": "1 34588U 93036WA  25348.88580404  .00001289  00000+0  39982-3 0  9991", "line2": "2 34588  74.0438 264.2785 0019212 316.7764 108.3245 14.42029509879811"}}, "geometry": {"type": "Point", "coordinates": [-129.40996106180728, -61.84884503778137]}}, {"type": "Feature", "properties": {"norad_id": 34589, "name": "COSMOS 2251 DEB", "group": "cosmos-2251-debris", "lat": -73.5156681642789, "lon": -25.87891987829113, "alt_km": 913.5200821174458, "timestamp": "2025-12-15T14:57:58.206537+00:00", "meta": {"OBJECT_NAME": "COSMOS 2251 DEB", "OBJECT_ID": "1993-036WB", "EPOCH": "2025-12-14T13:42:25.155936", "MEAN_MOTION": 13.86054156, "ECCENTRICITY": 0.0252014, "INCLINATION": 73.9256, "RA_OF_ASC_NODE": 52.9114, "ARG_OF_PERICENTER": 355.8599, "MEAN_ANOMALY": 71.054, "EPHEMERIS_TYPE": 0, "CLASSIFICATION_TYPE": "U", "NORAD_CAT_ID": 34589, "ELEMENT_SET_NO": 999, "REV_AT_EPOCH": 84737, "BSTAR": 0.00032226738, "MEAN_MOTION_DOT": 4.52e-06, "MEAN_MOTION_DDOT": 0}, "tle": {"line1": "1 34589U 93036WB  25348.57112449  .00000452  00000+0  32227-3 0  9994", "line2": "2 34589  73.9256  52.9114 0252014 355.8599  71.0540 13.86054156847378"}}, "geometry": {"type": "Point", "coordinates": [-25.87891987829113, -73.5156681642789]}}, {"type": "Feature", "properties": {"norad_id": 34590, "name": "COSMOS 2251 DEB", "group": "cosmos-2251-debris", "lat": -67.91597527731143, "lon": -178.06228447251598, "alt_km": 764.0333573801099, "timestamp": "2025-12-15T14:57:58.206545+00:00", "meta": {"OBJECT_NAME": "COSMOS 2251 DEB", "OBJECT_ID": "1993-036WC", "EPOCH": "2025-12-14T21:24:08.512416", "MEAN_MOTION": 14.54828102, "ECCENTRICITY": 0.00679453, "INCLINATION": 74.0439, "RA_OF_ASC_NODE": 318.4795, "ARG_OF_PERICENTER": 87.4596, "MEAN_ANOMALY": 295.6121, "EPHEMERIS_TYPE": 0, "CLASSIFICATION_TYPE": "U", "NORAD_CAT_ID": 34590, "ELEMENT_SET_NO": 999, "REV_AT_EPOCH": 89152, "BSTAR": 0.00014093719, "MEAN_MOTION_DOT": 5.94e-06, "MEAN_MOTION_DDOT": 0}, "tle": {"line1": "1 34590U 93036WC  25348.89176519  .00000594  00000+0  14094-3 0  9998", "line2": "2 34590  74.0439 318.4795 0067945  87.4596 295.6121 14.54828102891523"}}, "geometry": {"type": "Point", "coordinates": [-178.06228447251598, -67.91597527731143]}}, {"type": "Feature", "properties": {"norad_id": 34609, "name": "COSMOS 2251 DEB", "group": "cosmos-2251-debris", "lat": 40.70808778148294, "lon": 116.00116124988213, "alt_km": 800.324720160248, "timestamp": "2025-12-15T14:57:58.206554+00:00", "meta": {"OBJECT_NAME": "COSMOS 2251 DEB", "OBJECT_ID": "1993-036WE", "EPOCH": "2025-12-14T19:15:11.954880", "MEAN_MOTION": 14.21803039, "ECCENTRICITY": 0.0145247, "INCLINATION": 73.733, "RA_OF_ASC_NODE": 102.9523, "ARG_OF_PERICENTER": 322.1129, "MEAN_ANOMALY": 196.5764, "EPHEMERIS_TYPE": 0, "CLASSIFICATION_TYPE": "U", "NORAD_CAT_ID": 34609, "ELEMENT_SET_NO": 999, "REV_AT_EPOCH": 86661, "BSTAR": 0.00080864912, "MEAN_MOTION_DOT": 1.954e-05, "MEAN_MOTION_DDOT": 0}, "tle": {"line1": "1 34609U 93036WE  25348.80222170  .00001954  00000+0  80865-3 0  9995", "line2": "2 34609  73.7330 102.9523 0145247 322.1129 196.5764 14.21803039866618"}}, "geometry": {"type": "Point", "coordinates": [116.00116124988213, 40.70808778148294]}}]}